STARLINK-37156          
1 68263U 26055B   26093.25001157 -.01252716  00000+0 -67146-2 0  9995
2 68263  53.1586 214.2042 0000951  72.8352  16.1022 15.82291263  3589
STARLINK-37163          
1 68264U 26055C   26093.25001157 -.01279005  00000+0 -68824-2 0  9990
2 68264  53.1586 214.1851 0000866  77.6615  19.8877 15.82267945  3585
STARLINK-37133          
1 68265U 26055D   26093.25001157 -.01274715  00000+0 -68532-2 0  9990
2 68265  53.1587 214.1945 0001013  63.2792  29.9785 15.82275604  3584
STARLINK-37042          
1 68266U 26055E   26093.25001157 -.01255477  00000+0 -67799-2 0  9999
2 68266  53.1586 214.1764 0000845  74.0019  28.0203 15.82140499  3585
STARLINK-37103          
1 68267U 26055F   26093.25001157 -.01284828  00000+0 -69720-2 0  9998
2 68267  53.1587 214.1675 0001108  66.9738  39.4025 15.82100773  3588
STARLINK-36999          
1 68268U 26055G   26093.25001157 -.01282861  00000+0 -69629-2 0  9992
2 68268  53.1586 214.1585 0001187  66.2891  44.3736 15.82090879  3587
STARLINK-36962          
1 68269U 26055H   26093.25001157 -.01261225  00000+0 -68437-2 0  9990
2 68269  53.1585 214.1495 0001034  64.4011  50.5840 15.82049703  3587
STARLINK-37028          
1 68270U 26055J   26093.25001157 -.00854145  00000+0 -46402-2 0  9998
2 68270  53.1586 214.1303 0000447  87.9051  36.1630 15.81470064  3583
STARLINK-37029          
1 68271U 26055K   26093.25001157 -.00878291  00000+0 -47700-2 0  9999
2 68271  53.1587 214.1398 0001161  76.6017  43.1481 15.81531432  3589
STARLINK-36974          
1 68272U 26055L   26093.25001157 -.00559046  00000+0 -29618-2 0  9992
2 68272  53.1588 214.1214 0000929  66.0849  62.3825 15.81264883  3583
STARLINK-37019          
1 68273U 26055M   26093.25001157 -.00577690  00000+0 -30649-2 0  9994
2 68273  53.1588 214.1117 0001049  59.5040  73.2245 15.81280620  3584
STARLINK-37129          
1 68274U 26055N   26093.25001157 -.00523572  00000+0 -27661-2 0  9995
2 68274  53.1586 214.1031 0001192  70.3186  66.7113 15.81234885  3582
STARLINK-37123          
1 68275U 26055P   26093.25001157 -.00565264  00000+0 -29964-2 0  9998
2 68275  53.1587 214.0945 0000988  64.1562  77.1248 15.81268506  3580
STARLINK-37125          
1 68276U 26055Q   26093.25001157 -.00279270  00000+0 -14433-2 0  9993
2 68276  53.1586 214.0854 0001064  81.2151  64.4258 15.81084108  3583
STARLINK-36989          
1 68277U 26055R   26093.25001157 -.00184166  00000+0 -94437-3 0  9996
2 68277  53.1587 214.0587 0000668  54.8037 103.7108 15.80991731  3585
STARLINK-36982          
1 68278U 26055S   26093.25001157 -.00199188  00000+0 -10231-2 0  9996
2 68278  53.1586 214.0682 0000647  53.5966 100.6415 15.80999712  3589
