[{"OBJECT_NAME":"STARLINK-37156","OBJECT_ID":"2026-055B","EPOCH":"2026-04-03T06:00:00.999648","MEAN_MOTION":15.82291263,"ECCENTRICITY":9.518e-5,"INCLINATION":53.1586,"RA_OF_ASC_NODE":214.2042,"ARG_OF_PERICENTER":72.8352,"MEAN_ANOMALY":16.1022,"EPHEMERIS_TYPE":0,"CLASSIFICATION_TYPE":"U","NORAD_CAT_ID":68263,"ELEMENT_SET_NO":999,"REV_AT_EPOCH":358,"BSTAR":-0.0067146024,"MEAN_MOTION_DOT":-0.01252716,"MEAN_MOTION_DDOT":0},{"OBJECT_NAME":"STARLINK-37163","OBJECT_ID":"2026-055C","EPOCH":"2026-04-03T06:00:00.999648","MEAN_MOTION":15.82267945,"ECCENTRICITY":8.667e-5,"INCLINATION":53.1586,"RA_OF_ASC_NODE":214.1851,"ARG_OF_PERICENTER":77.6615,"MEAN_ANOMALY":19.8877,"EPHEMERIS_TYPE":0,"CLASSIFICATION_TYPE":"U","NORAD_CAT_ID":68264,"ELEMENT_SET_NO":999,"REV_AT_EPOCH":358,"BSTAR":-0.006882412,"MEAN_MOTION_DOT":-0.01279005,"MEAN_MOTION_DDOT":0},{"OBJECT_NAME":"STARLINK-37133","OBJECT_ID":"2026-055D","EPOCH":"2026-04-03T06:00:00.999648","MEAN_MOTION":15.82275604,"ECCENTRICITY":0.00010133,"INCLINATION":53.1587,"RA_OF_ASC_NODE":214.1945,"ARG_OF_PERICENTER":63.2792,"MEAN_ANOMALY":29.9785,"EPHEMERIS_TYPE":0,"CLASSIFICATION_TYPE":"U","NORAD_CAT_ID":68265,"ELEMENT_SET_NO":999,"REV_AT_EPOCH":358,"BSTAR":-0.0068532153,"MEAN_MOTION_DOT":-0.01274715,"MEAN_MOTION_DDOT":0},{"OBJECT_NAME":"STARLINK-37042","OBJECT_ID":"2026-055E","EPOCH":"2026-04-03T06:00:00.999648","MEAN_MOTION":15.82140499,"ECCENTRICITY":8.456e-5,"INCLINATION":53.1586,"RA_OF_ASC_NODE":214.1764,"ARG_OF_PERICENTER":74.0019,"MEAN_ANOMALY":28.0203,"EPHEMERIS_TYPE":0,"CLASSIFICATION_TYPE":"U","NORAD_CAT_ID":68266,"ELEMENT_SET_NO":999,"REV_AT_EPOCH":358,"BSTAR":-0.0067798749,"MEAN_MOTION_DOT":-0.01255477,"MEAN_MOTION_DDOT":0},{"OBJECT_NAME":"STARLINK-37103","OBJECT_ID":"2026-055F","EPOCH":"2026-04-03T06:00:00.999648","MEAN_MOTION":15.82100773,"ECCENTRICITY":0.00011085,"INCLINATION":53.1587,"RA_OF_ASC_NODE":214.1675,"ARG_OF_PERICENTER":66.9738,"MEAN_ANOMALY":39.4025,"EPHEMERIS_TYPE":0,"CLASSIFICATION_TYPE":"U","NORAD_CAT_ID":68267,"ELEMENT_SET_NO":999,"REV_AT_EPOCH":358,"BSTAR":-0.0069720369,"MEAN_MOTION_DOT":-0.01284828,"MEAN_MOTION_DDOT":0},{"OBJECT_NAME":"STARLINK-36999","OBJECT_ID":"2026-055G","EPOCH":"2026-04-03T06:00:00.999648","MEAN_MOTION":15.82090879,"ECCENTRICITY":0.00011878,"INCLINATION":53.1586,"RA_OF_ASC_NODE":214.1585,"ARG_OF_PERICENTER":66.2891,"MEAN_ANOMALY":44.3736,"EPHEMERIS_TYPE":0,"CLASSIFICATION_TYPE":"U","NORAD_CAT_ID":68268,"ELEMENT_SET_NO":999,"REV_AT_EPOCH":358,"BSTAR":-0.0069628752,"MEAN_MOTION_DOT":-0.01282861,"MEAN_MOTION_DDOT":0},{"OBJECT_NAME":"STARLINK-36962","OBJECT_ID":"2026-055H","EPOCH":"2026-04-03T06:00:00.999648","MEAN_MOTION":15.82049703,"ECCENTRICITY":0.0001034,"INCLINATION":53.1585,"RA_OF_ASC_NODE":214.1495,"ARG_OF_PERICENTER":64.4011,"MEAN_ANOMALY":50.584,"EPHEMERIS_TYPE":0,"CLASSIFICATION_TYPE":"U","NORAD_CAT_ID":68269,"ELEMENT_SET_NO":999,"REV_AT_EPOCH":358,"BSTAR":-0.0068436732,"MEAN_MOTION_DOT":-0.01261225,"MEAN_MOTION_DDOT":0},{"OBJECT_NAME":"STARLINK-37028","OBJECT_ID":"2026-055J","EPOCH":"2026-04-03T06:00:00.999648","MEAN_MOTION":15.81470064,"ECCENTRICITY":4.474e-5,"INCLINATION":53.1586,"RA_OF_ASC_NODE":214.1303,"ARG_OF_PERICENTER":87.9051,"MEAN_ANOMALY":36.163,"EPHEMERIS_TYPE":0,"CLASSIFICATION_TYPE":"U","NORAD_CAT_ID":68270,"ELEMENT_SET_NO":999,"REV_AT_EPOCH":358,"BSTAR":-0.00464025,"MEAN_MOTION_DOT":-0.00854145,"MEAN_MOTION_DDOT":0},{"OBJECT_NAME":"STARLINK-37029","OBJECT_ID":"2026-055K","EPOCH":"2026-04-03T06:00:00.999648","MEAN_MOTION":15.81531432,"ECCENTRICITY":0.00011613,"INCLINATION":53.1587,"RA_OF_ASC_NODE":214.1398,"ARG_OF_PERICENTER":76.6017,"MEAN_ANOMALY":43.1481,"EPHEMERIS_TYPE":0,"CLASSIFICATION_TYPE":"U","NORAD_CAT_ID":68271,"ELEMENT_SET_NO":999,"REV_AT_EPOCH":358,"BSTAR":-0.0047700295,"MEAN_MOTION_DOT":-0.00878291,"MEAN_MOTION_DDOT":0},{"OBJECT_NAME":"STARLINK-36974","OBJECT_ID":"2026-055L","EPOCH":"2026-04-03T06:00:00.999648","MEAN_MOTION":15.81264883,"ECCENTRICITY":9.293e-5,"INCLINATION":53.1588,"RA_OF_ASC_NODE":214.1214,"ARG_OF_PERICENTER":66.0849,"MEAN_ANOMALY":62.3825,"EPHEMERIS_TYPE":0,"CLASSIFICATION_TYPE":"U","NORAD_CAT_ID":68272,"ELEMENT_SET_NO":999,"REV_AT_EPOCH":358,"BSTAR":-0.0029618414,"MEAN_MOTION_DOT":-0.00559046,"MEAN_MOTION_DDOT":0},{"OBJECT_NAME":"STARLINK-37019","OBJECT_ID":"2026-055M","EPOCH":"2026-04-03T06:00:00.999648","MEAN_MOTION":15.8128062,"ECCENTRICITY":0.0001049,"INCLINATION":53.1588,"RA_OF_ASC_NODE":214.1117,"ARG_OF_PERICENTER":59.504,"MEAN_ANOMALY":73.2245,"EPHEMERIS_TYPE":0,"CLASSIFICATION_TYPE":"U","NORAD_CAT_ID":68273,"ELEMENT_SET_NO":999,"REV_AT_EPOCH":358,"BSTAR":-0.0030649137,"MEAN_MOTION_DOT":-0.0057769,"MEAN_MOTION_DDOT":0},{"OBJECT_NAME":"STARLINK-37129","OBJECT_ID":"2026-055N","EPOCH":"2026-04-03T06:00:00.999648","MEAN_MOTION":15.81234885,"ECCENTRICITY":0.00011923,"INCLINATION":53.1586,"RA_OF_ASC_NODE":214.1031,"ARG_OF_PERICENTER":70.3186,"MEAN_ANOMALY":66.7113,"EPHEMERIS_TYPE":0,"CLASSIFICATION_TYPE":"U","NORAD_CAT_ID":68274,"ELEMENT_SET_NO":999,"REV_AT_EPOCH":358,"BSTAR":-0.0027661127,"MEAN_MOTION_DOT":-0.00523572,"MEAN_MOTION_DDOT":0},{"OBJECT_NAME":"STARLINK-37123","OBJECT_ID":"2026-055P","EPOCH":"2026-04-03T06:00:00.999648","MEAN_MOTION":15.81268506,"ECCENTRICITY":9.889e-5,"INCLINATION":53.1587,"RA_OF_ASC_NODE":214.0945,"ARG_OF_PERICENTER":64.1562,"MEAN_ANOMALY":77.1248,"EPHEMERIS_TYPE":0,"CLASSIFICATION_TYPE":"U","NORAD_CAT_ID":68275,"ELEMENT_SET_NO":999,"REV_AT_EPOCH":358,"BSTAR":-0.0029963979,"MEAN_MOTION_DOT":-0.00565264,"MEAN_MOTION_DDOT":0},{"OBJECT_NAME":"STARLINK-37125","OBJECT_ID":"2026-055Q","EPOCH":"2026-04-03T06:00:00.999648","MEAN_MOTION":15.81084108,"ECCENTRICITY":0.00010648,"INCLINATION":53.1586,"RA_OF_ASC_NODE":214.0854,"ARG_OF_PERICENTER":81.2151,"MEAN_ANOMALY":64.4258,"EPHEMERIS_TYPE":0,"CLASSIFICATION_TYPE":"U","NORAD_CAT_ID":68276,"ELEMENT_SET_NO":999,"REV_AT_EPOCH":358,"BSTAR":-0.001443324,"MEAN_MOTION_DOT":-0.0027927,"MEAN_MOTION_DDOT":0},{"OBJECT_NAME":"STARLINK-36989","OBJECT_ID":"2026-055R","EPOCH":"2026-04-03T06:00:00.999648","MEAN_MOTION":15.80991731,"ECCENTRICITY":6.682e-5,"INCLINATION":53.1587,"RA_OF_ASC_NODE":214.0587,"ARG_OF_PERICENTER":54.8037,"MEAN_ANOMALY":103.7108,"EPHEMERIS_TYPE":0,"CLASSIFICATION_TYPE":"U","NORAD_CAT_ID":68277,"ELEMENT_SET_NO":999,"REV_AT_EPOCH":358,"BSTAR":-0.00094436814,"MEAN_MOTION_DOT":-0.00184166,"MEAN_MOTION_DDOT":0},{"OBJECT_NAME":"STARLINK-36982","OBJECT_ID":"2026-055S","EPOCH":"2026-04-03T06:00:00.999648","MEAN_MOTION":15.80999712,"ECCENTRICITY":6.477e-5,"INCLINATION":53.1586,"RA_OF_ASC_NODE":214.0682,"ARG_OF_PERICENTER":53.5966,"MEAN_ANOMALY":100.6415,"EPHEMERIS_TYPE":0,"CLASSIFICATION_TYPE":"U","NORAD_CAT_ID":68278,"ELEMENT_SET_NO":999,"REV_AT_EPOCH":358,"BSTAR":-0.0010230788,"MEAN_MOTION_DOT":-0.00199188,"MEAN_MOTION_DDOT":0}]
